EUTELSAT 7A             
1 28187U 04008A   25259.19923286  .00000086  00000+0  00000+0 0  9993
2 28187   5.1303  75.2671 0000901 109.5432 103.1055  1.00270631 78608
EUTELSAT 174A           
1 28924U 05052A   25259.15253238 -.00000008  00000+0  00000+0 0  9996
2 28924   3.5205  79.9208 0006150 100.0882  44.2531  1.00273008 49584
EUTELSAT HOTBIRD 13B    
1 29270U 06032A   25259.23346635  .00000137  00000+0  00000+0 0  9995
2 29270   0.9490  85.2478 0003877  91.8097 295.5467  1.00275310 44563
EUTELSAT HOTBIRD 13C    
1 33459U 08065A   25259.22436631 -.00000118  00000+0  00000+0 0  9992
2 33459   2.2413  82.4356 0004709 119.6226 221.6438  1.00271553 44595
EUTELSAT 36B            
1 36101U 09065A   25259.23684637  .00000094  00000+0  00000+0 0  9994
2 36101   0.0620 347.9266 0005722 193.7098 309.5419  1.00271005 57965
EUTELSAT KA-SAT 9A      
1 37258U 10069A   25258.22948888  .00000046  00000+0  00000+0 0  9990
2 37258   0.0550 327.7876 0003068 171.1954 307.0818  1.00270788 41254
EUTELSAT 7 WEST A       
1 37816U 11051A   25259.22540631 -.00000079  00000+0  00000+0 0  9994
2 37816   0.0687  13.8413 0005975 171.2525 244.1512  1.00271568 51136
EUTELSAT 16A            
1 37836U 11057A   25259.22999966  .00000086  00000+0  00000+0 0  9998
2 37836   0.0657   8.0665 0005417 167.0558 279.1178  1.00274057  4589
